NORAD_CAT_ID,OBJECT_NAME,OBJECT_TYPE,EPOCH,MEAN_MOTION,ECCENTRICITY,INCLINATION,RA_OF_ASC_NODE,ARG_OF_PERICENTER,MEAN_ANOMALY,BSTAR,MEAN_MOTION_DOT,MEAN_MOTION_DDOT,TLE_LINE0,TLE_LINE1,TLE_LINE2,SEMIMAJOR_AXIS,PERIOD,APOGEE,PERIGEE,DECAYED
52119.0,STARLINK-3558,PAYLOAD,2023-06-28 23:50:35,15.08840637,0.0001119,53.2159,179.5932,85.6984,274.4136,8.3029e-05,1.034e-05,0.0,0 STARLINK-3558,1 52119U 22029AH  23179.99346082  .00001034  00000-0  83029-4 0  9990,2 52119  53.2159 179.5932 0001119  85.6984 274.4136 15.08840637 72146,6917.878,95.438,540.518,538.969,0.0
52119.0,STARLINK-3558,PAYLOAD,2023-07-01 09:04:28,15.0883848,0.0001193,53.2162,168.888,90.4342,269.6786,-3.65e-06,-3.46e-06,0.0,0 STARLINK-3558,1 52119U 22029AH  23182.37810215 -.00000346  00000-0 -36500-5 0  9990,2 52119  53.2162 168.8880 0001193  90.4342 269.6786 15.08838480 72507,6917.885,95.438,540.575,538.925,0.0
52119.0,STARLINK-3558,PAYLOAD,2023-07-02 15:16:47,15.08835449,0.0001176,53.2163,163.2384,88.9949,271.1178,1.1346e-05,-1.07e-06,0.0,0 STARLINK-3558,1 52119U 22029AH  23183.63666548 -.00000107  00000-0  11346-4 0  9992,2 52119  53.2163 163.2384 0001176  88.9949 271.1178 15.08835449 72697,6917.894,95.438,540.573,538.946,0.0
52119.0,STARLINK-3558,PAYLOAD,2023-07-04 02:15:17,15.08835532,0.0001173,53.2162,156.6964,89.63,270.4826,1.7543e-05,-9e-08,0.0,0 STARLINK-3558,1 52119U 22029AH  23185.09394908 -.00000009  00000-0  17543-4 0  9998,2 52119  53.2162 156.6964 0001173  89.6300 270.4826 15.08835532 72912,6917.894,95.438,540.571,538.948,0.0
52119.0,STARLINK-3558,PAYLOAD,2023-07-05 05:16:50,15.08837922,0.0001231,53.2165,151.6414,93.9627,266.1505,1.973e-05,2.6e-07,0.0,0 STARLINK-3558,1 52119U 22029AH  23186.22003029  .00000026  00000-0  19730-4 0  9993,2 52119  53.2165 151.6414 0001231  93.9627 266.1505 15.08837922 73085,6917.887,95.438,540.603,538.9,0.0
52119.0,STARLINK-3558,PAYLOAD,2023-07-06 06:43:00,15.08841694,0.0001253,53.2165,146.8831,91.8648,268.2487,6.6983e-05,7.78e-06,0.0,0 STARLINK-3558,1 52119U 22029AH  23187.27986837  .00000778  00000-0  66983-4 0  9992,2 52119  53.2165 146.8831 0001253  91.8648 268.2487 15.08841694 73249,6917.875,95.437,540.607,538.873,0.0
52119.0,STARLINK-3558,PAYLOAD,2023-07-06 14:39:56,15.08836441,0.0001226,53.2165,145.3951,93.0732,267.04,1.3253e-05,-7.7e-07,0.0,0 STARLINK-3558,1 52119U 22029AH  23187.61107337 -.00000077  00000-0  13253-4 0  9995,2 52119  53.2165 145.3951 0001226  93.0732 267.0400 15.08836441 73295,6917.891,95.438,540.604,538.908,0.0
52119.0,STARLINK-3558,PAYLOAD,2023-07-07 14:30:43,15.08842447,0.0001261,53.2166,140.9356,90.3346,269.7791,7.4449e-05,8.97e-06,0.0,0 STARLINK-3558,1 52119U 22029AH  23188.60466928  .00000897  00000-0  74449-4 0  9992,2 52119  53.2166 140.9356 0001261  90.3346 269.7791 15.08842447 73448,6917.873,95.437,540.61,538.866,0.0
52119.0,STARLINK-3558,PAYLOAD,2023-07-08 20:43:03,15.08834622,0.0001327,53.2168,135.2848,96.6532,263.4612,-6.7549e-06,-3.95e-06,0.0,0 STARLINK-3558,1 52119U 22029AH  23189.86323542 -.00000395  00000-0 -67549-5 0  9994,2 52119  53.2168 135.2848 0001327  96.6532 263.4612 15.08834622 73632,6917.897,95.438,540.68,538.844,0.0
52119.0,STARLINK-3558,PAYLOAD,2023-07-10 02:55:22,15.08843617,0.0001126,53.2169,129.6364,95.9565,264.1555,1.0382e-05,-1.23e-06,0.0,0 STARLINK-3558,1 52119U 22029AH  23191.12179082 -.00000123  00000-0  10382-4 0  9994,2 52119  53.2169 129.6364 0001126  95.9565 264.1555 15.08843617 73827,6917.869,95.437,540.513,538.955,0.0
52119.0,STARLINK-3558,PAYLOAD,2023-07-11 02:46:10,15.08835726,0.0001053,53.2168,125.1773,98.8783,261.2328,6.7849e-05,7.92e-06,0.0,0 STARLINK-3558,1 52119U 22029AH  23192.11539598  .00000792  00000-0  67849-4 0  9997,2 52119  53.2168 125.1773 0001053  98.8783 261.2328 15.08835726 73978,6917.893,95.438,540.487,539.03,0.0
52119.0,STARLINK-3558,PAYLOAD,2023-07-12 04:12:20,15.08842599,0.0001048,53.2165,120.4194,102.3527,257.7582,7.6325e-05,9.27e-06,0.0,0 STARLINK-3558,1 52119U 22029AH  23193.17523375  .00000927  00000-0  76325-4 0  9999,2 52119  53.2165 120.4194 0001048 102.3527 257.7582 15.08842599 74138,6917.872,95.437,540.462,539.012,0.0
52119.0,STARLINK-3558,PAYLOAD,2023-07-13 02:27:44,15.08841474,0.0001147,53.2172,116.2548,81.611,278.5012,7.7732e-05,9.5e-06,0.0,0 STARLINK-3558,1 52119U 22029AH  23194.10259626  .00000950  00000-0  77732-4 0  9997,2 52119  53.2172 116.2548 0001147  81.6110 278.5012 15.08841474 74274,6917.876,95.437,540.534,538.947,0.0
52119.0,STARLINK-3558,PAYLOAD,2023-07-13 21:32:22,15.08836486,0.0001156,53.2175,112.6861,84.4565,275.6559,-2.2261e-05,-6.42e-06,0.0,0 STARLINK-3558,1 52119U 22029AH  23194.89748353 -.00000642  00000-0 -22261-4 0  9990,2 52119  53.2175 112.6861 0001156  84.4565 275.6559 15.08836486 74394,6917.891,95.438,540.556,538.956,0.0
52119.0,STARLINK-3558,PAYLOAD,2023-07-15 00:33:54,15.08845628,0.0001136,53.2169,107.6321,90.2704,269.8418,0.0001086,1.441e-05,0.0,0 STARLINK-3558,1 52119U 22029AH  23196.02355295  .00001441  00000-0  10860-3 0  9993,2 52119  53.2169 107.6321 0001136  90.2704 269.8418 15.08845628 74566,6917.863,95.437,540.514,538.942,0.0
52119.0,STARLINK-3558,PAYLOAD,2023-07-15 13:17:00,15.08839788,0.0001068,53.2168,105.2536,97.7797,262.3316,7.8903e-05,9.68e-06,0.0,0 STARLINK-3558,1 52119U 22029AH  23196.55347631  .00000968  00000-0  78903-4 0  9992,2 52119  53.2168 105.2536 0001068  97.7797 262.3316 15.08839788 74649,6917.881,95.438,540.485,539.007,0.0
52119.0,STARLINK-3558,PAYLOAD,2023-07-16 13:07:47,15.08836255,0.0001144,53.2163,100.7922,84.8961,275.2162,3.9188e-06,-2.25e-06,0.0,0 STARLINK-3558,1 52119U 22029AH  23197.54708278 -.00000225  00000-0  39188-5 0  9990,2 52119  53.2163 100.7922 0001144  84.8961 275.2162 15.08836255 74792,6917.892,95.438,540.548,538.965,0.0
52119.0,STARLINK-3558,PAYLOAD,2023-07-17 00:15:29,15.08841945,0.0001204,53.2164,98.7101,94.7433,265.3697,2.2599e-05,7.2e-07,0.0,0 STARLINK-3558,1 52119U 22029AH  23198.01075900  .00000072  00000-0  22599-4 0  9998,2 52119  53.2164  98.7101 0001204  94.7433 265.3697 15.08841945 74862,6917.874,95.437,540.572,538.907,0.0
52119.0,STARLINK-3558,PAYLOAD,2023-07-17 12:58:35,15.08831091,0.0001003,53.2165,96.332,78.7261,281.3844,7.3106e-05,8.76e-06,0.0,0 STARLINK-3558,1 52119U 22029AH  23198.54068376  .00000876  00000-0  73106-4 0  9997,2 52119  53.2165  96.3320 0001003  78.7261 281.3844 15.08831091 74940,6917.908,95.438,540.466,539.079,0.0
52119.0,STARLINK-3558,PAYLOAD,2023-07-17 22:30:53,15.08841282,0.0001093,53.2168,94.5474,98.9577,261.1539,0.00014662,2.046e-05,0.0,0 STARLINK-3558,1 52119U 22029AH  23198.93811580  .00002046  00000-0  14662-3 0  9995,2 52119  53.2168  94.5474 0001093  98.9577 261.1539 15.08841282 75004,6917.876,95.437,540.498,538.985,0.0
52119.0,STARLINK-3558,PAYLOAD,2023-07-18 12:49:22,15.08835124,0.000116,53.217,91.872,113.9832,246.1281,6.1174e-05,6.86e-06,0.0,0 STARLINK-3558,1 52119U 22029AH  23199.53428245  .00000686  00000-0  61174-4 0  9993,2 52119  53.2170  91.8720 0001160 113.9832 246.1281 15.08835124 75092,6917.895,95.438,540.563,538.958,0.0
52119.0,STARLINK-3558,PAYLOAD,2023-07-19 19:01:42,15.08832832,6.8e-05,53.2178,86.2243,86.4667,273.6403,-3.0489e-05,-7.73e-06,0.0,0 STARLINK-3558,1 52119U 22029AH  23200.79285176 -.00000773  00000-0 -30489-4 0  9992,2 52119  53.2178  86.2243 0000680  86.4667 273.6403 15.08832832 75289,6917.902,95.438,540.238,539.297,0.0
52119.0,STARLINK-3558,PAYLOAD,2023-07-20 18:52:28,15.08838148,9.81e-05,53.2171,81.7607,132.8116,227.2959,8.2469e-05,1.025e-05,0.0,0 STARLINK-3558,1 52119U 22029AH  23201.78644354  .00001025  00000-0  82469-4 0  9993,2 52119  53.2171  81.7607 0000981 132.8116 227.2959 15.08838148 75439,6917.886,95.438,540.43,539.072,0.0
52119.0,STARLINK-3558,PAYLOAD,2023-07-24 00:46:23,15.08836533,9.28e-05,53.2173,67.1912,78.9843,281.1254,2.5498e-06,-2.47e-06,0.0,0 STARLINK-3558,1 52119U 22029AH  23205.03221150 -.00000247  00000-0  25498-5 0  9996,2 52119  53.2173  67.1912 0000928  78.9843 281.1254 15.08836533 75912,6917.891,95.438,540.398,539.114,0.0
52119.0,STARLINK-3558,PAYLOAD,2023-07-25 00:37:09,15.0884742,8.97e-05,53.2178,62.7301,81.9263,278.1831,5.7087e-05,6.21e-06,0.0,0 STARLINK-3558,1 52119U 22029AH  23206.02580292  .00000621  00000-0  57087-4 0  9994,2 52119  53.2178  62.7301 0000897  81.9263 278.1831 15.08847420 76066,6917.858,95.437,540.343,539.102,0.0
52119.0,STARLINK-3558,PAYLOAD,2023-07-26 10:00:15,15.08846294,6.87e-05,53.2179,56.4864,81.3523,278.7547,9.9978e-05,1.304e-05,0.0,0 STARLINK-3558,1 52119U 22029AH  23207.41684451  .00001304  00000-0  99978-4 0  9994,2 52119  53.2179  56.4864 0000687  81.3523 278.7547 15.08846294 76272,6917.861,95.437,540.201,539.251,0.0
52119.0,STARLINK-3558,PAYLOAD,2023-07-26 16:21:46,15.08860456,0.0002859,53.2159,55.2869,145.9347,214.1829,0.0001993,2.887e-05,0.0,0 STARLINK-3558,1 52119U 22029AH  23207.68178746  .00002887  00000-0  19930-3 0  9994,2 52119  53.2159  55.2869 0002859 145.9347 214.1829 15.08860456 76325,6917.818,95.436,541.661,537.705,0.0
52119.0,STARLINK-3558,PAYLOAD,2023-07-26 21:07:55,15.08882422,0.0001069,53.2175,54.4035,78.4782,281.633,9.5177e-05,1.229e-05,0.0,0 STARLINK-3558,1 52119U 22029AH  23207.88049896  .00001229  00000-0  95177-4 0  9996,2 52119  53.2175  54.4035 0001069  78.4782 281.6330 15.08882422 76349,6917.751,95.435,540.355,538.876,0.0
52119.0,STARLINK-3558,PAYLOAD,2023-07-27 00:18:40,15.08884689,0.0001089,53.2175,53.8083,83.5373,276.5743,0.00013358,1.841e-05,0.0,0 STARLINK-3558,1 52119U 22029AH  23208.01297362  .00001841  00000-0  13358-3 0  9995,2 52119  53.2175  53.8083 0001089  83.5373 276.5743 15.08884689 76371,6917.744,95.435,540.362,538.855,0.0
52119.0,STARLINK-3558,PAYLOAD,2023-07-27 08:15:40,15.08823034,0.0001071,53.2178,52.3242,88.5639,271.5476,-1.0504e-05,-4.55e-06,0.0,0 STARLINK-3558,1 52119U 22029AH  23208.34421748 -.00000455  00000-0 -10504-4 0  9991,2 52119  53.2178  52.3242 0001071  88.5639 271.5476 15.08823034 76427,6917.932,95.439,540.538,539.056,0.0
